IRIDIUM 155             
1 43573U 18061E   19185.53701322  .00000063  00000-0  15344-4 0  9995
2 43573  86.3962  38.0515 0002469  70.4268 289.7194 14.34219426 49355
IRIDIUM 154             
1 43574U 18061F   19185.51799313  .00000064  00000-0  15671-4 0  9995
2 43574  86.3965  38.0730 0002272  95.5899 264.5556 14.34219895 49395
IRIDIUM 163             
1 43575U 18061G   19185.15013457  .00000074  00000-0  19367-4 0  9991
2 43575  86.3963  38.2190 0001423  95.5175 264.6183 14.34216579 49315
IRIDIUM 156             
1 43576U 18061H   19185.54336344  .00000076  00000-0  20077-4 0  9990
2 43576  86.3963  38.0589 0001834  78.8114 281.3288 14.34218595 49355
IRIDIUM 164             
1 43577U 18061J   19185.52433799  .00000071  00000-0  18196-4 0  9995
2 43577  86.3964  38.0687 0002111  94.0378 266.1059 14.34217973 49409
IRIDIUM 159             
1 43578U 18061K   19185.49262478  .00000069  00000-0  17600-4 0  9992
2 43578  86.3962  38.0720 0002183  92.2408 267.9037 14.34218347 49365
IRIDIUM 180             
1 43922U 19002A   19185.49211405  .00000042  00000-0  79411-5 0  9995
2 43922  86.3971 334.8988 0002523 125.1466 234.9966 14.34219175 25010
IRIDIUM 176             
1 43923U 19002B   19185.47737042  .00000104  00000-0  12571-4 0  9996
2 43923  86.6105 334.9218 0002130  90.9887 269.1575 14.72242338 25587
IRIDIUM 168             
1 43924U 19002C   19185.48577426  .00000047  00000-0  96047-5 0  9993
2 43924  86.3974 334.9069 0002357 101.8387 258.3073 14.34219279 24950
IRIDIUM 173             
1 43925U 19002D   19184.84517095  .00000035  00000-0  55303-5 0  9996
2 43925  86.3969 335.1666 0002229  98.5131 261.6317 14.34217196 24851
IRIDIUM 169             
1 43926U 19002E   19185.49311013  .00000052  00000-0  10910-4 0  9994
2 43926  87.4033 351.9798 0004793  70.9001 289.2717 14.38621419 25094
IRIDIUM 172             
1 43927U 19002F   19184.83884054  .00000053  00000-0  11951-4 0  9999
2 43927  86.3970 335.1693 0002239 102.7689 257.3757 14.34216394 24851
IRIDIUM 175             
1 43928U 19002G   19185.47137463  .00000101  00000-0  12118-4 0  9996
2 43928  86.6089 334.8852 0003243  75.9363 284.2215 14.72261335 25570
IRIDIUM 171             
1 43929U 19002H   19184.88956676  .00000041  00000-0  75146-5 0  9990
2 43929  86.3979 335.1720 0002339 100.2204 259.9256 14.34216938 24856
IRIDIUM 170             
1 43930U 19002J   19185.48353721  .00000094  00000-0  11068-4 0  9991
2 43930  86.6105 334.9270 0002265  82.4055 277.7419 14.72242171 25593
IRIDIUM 167             
1 43931U 19002K   19185.51113804  .00000040  00000-0  73819-5 0  9996
2 43931  86.3971 334.8884 0002556 121.3141 238.8305 14.34216718 24940
